start=new Date('2023-03-29T00:00:00.000Z').valueOf();
sats=[{"MEAN_MOTION":"15.06462418","REV_AT_EPOCH":"16744","PERIAPSIS":"546.291","OBJECT_ID":"2020-019H","TLE_LINE2":"2 45367  53.0535 320.2029 0001056 101.2311 258.8796 15.06462418167441","ECCENTRICITY":"0.00010560","OBJECT_NAME":"STARLINK-1273","MEAN_ANOMALY":"258.8796","MEAN_MOTION_DOT":"0.00029263","COUNTRY_CODE":"US","OBJECT_TYPE":"PAYLOAD","TIME_SYSTEM":"UTC","SEMIMAJOR_AXIS":"6925.157","TLE_LINE1":"1 45367U 20019H   23087.97021712  .00029263  00000-0  19720-2 0  9999","REF_FRAME":"TEME","CENTER_NAME":"EARTH","MEAN_MOTION_DDOT":"0.0000000000000","MEAN_ELEMENT_THEORY":"SGP4","DECAY_DATE":null,"LAUNCH_DATE":"2020-03-18","APOAPSIS":"547.754","GP_ID":"229042507","RCS_SIZE":"LARGE","SITE":"AFETR","ELEMENT_SET_NO":"999","EPOCH":"2023-03-28T23:17:06.759168","EPHEMERIS_TYPE":"0","NORAD_CAT_ID":"45367","INCLINATION":"53.0535","PERIOD":"95.588","FILE":"3873853","RA_OF_ASC_NODE":"320.2029","ARG_OF_PERICENTER":"101.2311","BSTAR":"0.00197200000000","CLASSIFICATION_TYPE":"U"},{"REF_FRAME":"TEME","CENTER_NAME":"EARTH","LAUNCH_DATE":"2020-03-18","RCS_SIZE":"LARGE","GP_ID":"229063562","APOAPSIS":"547.881","MEAN_MOTION_DDOT":"0.0000000000000","DECAY_DATE":null,"MEAN_ELEMENT_THEORY":"SGP4","EPHEMERIS_TYPE":"0","NORAD_CAT_ID":"45368","INCLINATION":"53.0535","SITE":"AFETR","ELEMENT_SET_NO":"999","EPOCH":"2023-03-28T20:59:05.210304","ARG_OF_PERICENTER":"150.6647","BSTAR":"0.00159350000000","CLASSIFICATION_TYPE":"U","FILE":"3873921","PERIOD":"95.593","RA_OF_ASC_NODE":"320.6303","OBJECT_ID":"2020-019J","REV_AT_EPOCH":"16743","MEAN_MOTION":"15.06381685","PERIAPSIS":"546.659","TLE_LINE2":"2 45368  53.0535 320.6303 0000882 150.6647 209.4391 15.06381685167435","OBJECT_NAME":"STARLINK-1276","MEAN_ANOMALY":"209.4391","ECCENTRICITY":"0.00008820","TLE_LINE1":"1 45368U 20019J   23087.87436586  .00023522  00000-0  15935-2 0  9994","TIME_SYSTEM":"UTC","COUNTRY_CODE":"US","OBJECT_TYPE":"PAYLOAD","MEAN_MOTION_DOT":"0.00023522","SEMIMAJOR_AXIS":"6925.405"},{"TLE_LINE2":"2 45369  53.0551 320.3360 0000654  95.0836 265.0228 15.06447431167443","PERIAPSIS":"546.615","MEAN_MOTION":"15.06447431","REV_AT_EPOCH":"16744","OBJECT_ID":"2020-019K","SEMIMAJOR_AXIS":"6925.203","COUNTRY_CODE":"US","MEAN_MOTION_DOT":"0.00027195","OBJECT_TYPE":"PAYLOAD","TIME_SYSTEM":"UTC","TLE_LINE1":"1 45369U 20019K   23087.93977577  .00027195  00000-0  18352-2 0  9998","ECCENTRICITY":"0.00006540","MEAN_ANOMALY":"265.0228","OBJECT_NAME":"STARLINK-1277","MEAN_ELEMENT_THEORY":"SGP4","DECAY_DATE":null,"MEAN_MOTION_DDOT":"0.0000000000000","APOAPSIS":"547.521","GP_ID":"229042519","RCS_SIZE":"LARGE","LAUNCH_DATE":"2020-03-18","REF_FRAME":"TEME","CENTER_NAME":"EARTH","RA_OF_ASC_NODE":"320.3360","PERIOD":"95.589","FILE":"3873851","BSTAR":"0.00183520000000","CLASSIFICATION_TYPE":"U","ARG_OF_PERICENTER":"95.0836","EPOCH":"2023-03-28T22:33:16.626528","SITE":"AFETR","ELEMENT_SET_NO":"999","NORAD_CAT_ID":"45369","INCLINATION":"53.0551","EPHEMERIS_TYPE":"0"},{"APOAPSIS":"547.652","GP_ID":"229063061","RCS_SIZE":"LARGE","LAUNCH_DATE":"2020-03-18","MEAN_ELEMENT_THEORY":"SGP4","DECAY_DATE":null,"MEAN_MOTION_DDOT":"0.0000000000000","REF_FRAME":"TEME","CENTER_NAME":"EARTH","CLASSIFICATION_TYPE":"U","BSTAR":"0.00198030000000","ARG_OF_PERICENTER":"88.8254","RA_OF_ASC_NODE":"320.3792","PERIOD":"95.588","FILE":"3873921","NORAD_CAT_ID":"45370","INCLINATION":"53.0535","EPHEMERIS_TYPE":"0","EPOCH":"2023-03-28T22:18:43.143264","SITE":"AFETR","ELEMENT_SET_NO":"999","TLE_LINE2":"2 45370  53.0535 320.3792 0000898  88.8254 271.2838 15.06459841167444","OBJECT_ID":"2020-019L","PERIAPSIS":"546.408","REV_AT_EPOCH":"16744","MEAN_MOTION":"15.06459841","TLE_LINE1":"1 45370U 20019L   23087.92966601  .00029386  00000-0  19803-2 0  9991","SEMIMAJOR_AXIS":"6925.165","MEAN_MOTION_DOT":"0.00029386","COUNTRY_CODE":"US","OBJECT_TYPE":"PAYLOAD","TIME_SYSTEM":"UTC","MEAN_ANOMALY":"271.2838","OBJECT_NAME":"STARLINK-1281","ECCENTRICITY":"0.00008980"},{"ECCENTRICITY":"0.00013820","MEAN_ANOMALY":"271.5004","OBJECT_NAME":"STARLINK-1287","SEMIMAJOR_AXIS":"6925.166","COUNTRY_CODE":"US","OBJECT_TYPE":"PAYLOAD","MEAN_MOTION_DOT":"0.00027715","TIME_SYSTEM":"UTC","TLE_LINE1":"1 45371U 20019M   23087.89186618  .00027715  00000-0  18692-2 0  9999","PERIAPSIS":"546.074","REV_AT_EPOCH":"16743","MEAN_MOTION":"15.06459654","OBJECT_ID":"2020-019M","TLE_LINE2":"2 45371  53.0534 320.5381 0001382  88.6144 271.5004 15.06459654167434","EPOCH":"2023-03-28T21:24:17.237952","ELEMENT_SET_NO":"999","SITE":"AFETR","NORAD_CAT_ID":"45371","INCLINATION":"53.0534","EPHEMERIS_TYPE":"0","RA_OF_ASC_NODE":"320.5381","PERIOD":"95.588","FILE":"3873921","CLASSIFICATION_TYPE":"U","BSTAR":"0.00186920000000","ARG_OF_PERICENTER":"88.6144","REF_FRAME":"TEME","CENTER_NAME":"EARTH","MEAN_ELEMENT_THEORY":"SGP4","DECAY_DATE":null,"MEAN_MOTION_DDOT":"0.0000000000000","GP_ID":"229062812","APOAPSIS":"547.988","RCS_SIZE":"LARGE","LAUNCH_DATE":"2020-03-18"},{"TLE_LINE2":"2 45372  53.0548 320.4786 0001061 105.0443 255.0663 15.06463442167436","PERIAPSIS":"546.284","MEAN_MOTION":"15.06463442","REV_AT_EPOCH":"16743","OBJECT_ID":"2020-019N","SEMIMAJOR_AXIS":"6925.154","TIME_SYSTEM":"UTC","MEAN_MOTION_DOT":"0.00028219","COUNTRY_CODE":"US","OBJECT_TYPE":"PAYLOAD","TLE_LINE1":"1 45372U 20019N   23087.90755908  .00028219  00000-0  19025-2 0  9997","ECCENTRICITY":"0.00010610","MEAN_ANOMALY":"255.0663","OBJECT_NAME":"STARLINK-1288","DECAY_DATE":null,"MEAN_ELEMENT_THEORY":"SGP4","MEAN_MOTION_DDOT":"0.0000000000000","RCS_SIZE":"LARGE","APOAPSIS":"547.754","GP_ID":"229064063","LAUNCH_DATE":"2020-03-18","REF_FRAME":"TEME","CENTER_NAME":"EARTH","RA_OF_ASC_NODE":"320.4786","FILE":"3873921","PERIOD":"95.588","CLASSIFICATION_TYPE":"U","BSTAR":"0.00190250000000","ARG_OF_PERICENTER":"105.0443","EPOCH":"2023-03-28T21:46:53.104512","SITE":"AFETR","ELEMENT_SET_NO":"999","NORAD_CAT_ID":"45372","INCLINATION":"53.0548","EPHEMERIS_TYPE":"0"},{"REV_AT_EPOCH":"16744","MEAN_MOTION":"15.06785318","PERIAPSIS":"545.391","OBJECT_ID":"2020-019P","TLE_LINE2":"2 45373  53.0529 320.2655 0000927 122.9758 237.1321 15.06785318167448","ECCENTRICITY":"0.00009270","OBJECT_NAME":"STARLINK-1295","MEAN_ANOMALY":"237.1321","OBJECT_TYPE":"PAYLOAD","COUNTRY_CODE":"US","MEAN_MOTION_DOT":"0.00031944","TIME_SYSTEM":"UTC","SEMIMAJOR_AXIS":"6924.168","TLE_LINE1":"1 45373U 20019P   23087.95468919  .00031944  00000-0  21315-2 0  9990","REF_FRAME":"TEME","CENTER_NAME":"EARTH","MEAN_MOTION_DDOT":"0.0000000000000","MEAN_ELEMENT_THEORY":"SGP4","DECAY_DATE":null,"LAUNCH_DATE":"2020-03-18","APOAPSIS":"546.675","GP_ID":"229041143","RCS_SIZE":"LARGE","SITE":"AFETR","ELEMENT_SET_NO":"999","EPOCH":"2023-03-28T22:54:45.146016","EPHEMERIS_TYPE":"0","INCLINATION":"53.0529","NORAD_CAT_ID":"45373","PERIOD":"95.568","FILE":"3873794","RA_OF_ASC_NODE":"320.2655","ARG_OF_PERICENTER":"122.9758","CLASSIFICATION_TYPE":"U","BSTAR":"0.00213150000000"},{"SITE":"AFETR","ELEMENT_SET_NO":"999","EPOCH":"2023-03-29T00:26:06.613440","EPHEMERIS_TYPE":"0","NORAD_CAT_ID":"45374","INCLINATION":"53.0544","FILE":"3873855","PERIOD":"95.588","RA_OF_ASC_NODE":"319.9835","ARG_OF_PERICENTER":"81.5545","CLASSIFICATION_TYPE":"U","BSTAR":"0.00205300000000","REF_FRAME":"TEME","CENTER_NAME":"EARTH","MEAN_MOTION_DDOT":"0.0000000000000","DECAY_DATE":null,"MEAN_ELEMENT_THEORY":"SGP4","LAUNCH_DATE":"2020-03-18","RCS_SIZE":"LARGE","APOAPSIS":"547.560","GP_ID":"229042414","ECCENTRICITY":"0.00008080","OBJECT_NAME":"STARLINK-1300","MEAN_ANOMALY":"278.5536","TIME_SYSTEM":"UTC","COUNTRY_CODE":"US","OBJECT_TYPE":"PAYLOAD","MEAN_MOTION_DOT":"0.00030488","SEMIMAJOR_AXIS":"6925.135","TLE_LINE1":"1 45374U 20019Q   23088.01813210  .00030488  00000-0  20530-2 0  9997","MEAN_MOTION":"15.06469658","REV_AT_EPOCH":"16745","PERIAPSIS":"546.441","OBJECT_ID":"2020-019Q","TLE_LINE2":"2 45374  53.0544 319.9835 0000808  81.5545 278.5536 15.06469658167457"},{"EPHEMERIS_TYPE":"0","INCLINATION":"53.0545","NORAD_CAT_ID":"45375","ELEMENT_SET_NO":"999","SITE":"AFETR","EPOCH":"2023-03-29T00:47:23.517312","ARG_OF_PERICENTER":"100.8328","CLASSIFICATION_TYPE":"U","BSTAR":"0.00196540000000","PERIOD":"95.590","FILE":"3873856","RA_OF_ASC_NODE":"319.9209","REF_FRAME":"TEME","CENTER_NAME":"EARTH","LAUNCH_DATE":"2020-03-18","GP_ID":"229042574","APOAPSIS":"547.718","RCS_SIZE":"LARGE","MEAN_MOTION_DDOT":"0.0000000000000","MEAN_ELEMENT_THEORY":"SGP4","DECAY_DATE":null,"OBJECT_NAME":"STARLINK-1302","MEAN_ANOMALY":"259.2764","ECCENTRICITY":"0.00009100","TLE_LINE1":"1 45375U 20019R   23088.03291108  .00029147  00000-0  19654-2 0  9991","MEAN_MOTION_DOT":"0.00029147","COUNTRY_CODE":"US","OBJECT_TYPE":"PAYLOAD","TIME_SYSTEM":"UTC","SEMIMAJOR_AXIS":"6925.223","OBJECT_ID":"2020-019R","MEAN_MOTION":"15.06440909","REV_AT_EPOCH":"16745","PERIAPSIS":"546.458","TLE_LINE2":"2 45375  53.0545 319.9209 0000910 100.8328 259.2764 15.06440909167459"},{"TLE_LINE1":"1 45376U 20019S   23087.91860361  .00031074  00000-0  20929-2 0  9990","MEAN_MOTION_DOT":"0.00031074","COUNTRY_CODE":"US","OBJECT_TYPE":"PAYLOAD","TIME_SYSTEM":"UTC","SEMIMAJOR_AXIS":"6925.188","OBJECT_NAME":"STARLINK-1304","MEAN_ANOMALY":"277.7190","ECCENTRICITY":"0.00005890","TLE_LINE2":"2 45376  53.0545 320.4344 0000589  82.3866 277.7190 15.06452465167436","OBJECT_ID":"2020-019S","MEAN_MOTION":"15.06452465","REV_AT_EPOCH":"16743","PERIAPSIS":"546.645","ARG_OF_PERICENTER":"82.3866","CLASSIFICATION_TYPE":"U","BSTAR":"0.00209290000000","PERIOD":"95.589","FILE":"3873921","RA_OF_ASC_NODE":"320.4344","EPHEMERIS_TYPE":"0","NORAD_CAT_ID":"45376","INCLINATION":"53.0545","SITE":"AFETR","ELEMENT_SET_NO":"999","EPOCH":"2023-03-28T22:02:47.351904","LAUNCH_DATE":"2020-03-18","GP_ID":"229063563","APOAPSIS":"547.461","RCS_SIZE":"LARGE","MEAN_MOTION_DDOT":"0.0000000000000","MEAN_ELEMENT_THEORY":"SGP4","DECAY_DATE":null,"REF_FRAME":"TEME","CENTER_NAME":"EARTH"}];
